ONEWEB-0349             
1 49281U 21090C   25224.29158300  .00000048  00000+0  85663-4 0  9992
2 49281  87.9291 336.0001 0001816  98.0470 262.0870 13.20772756190341
ONEWEB-0353             
1 49282U 21090D   25223.86802526  .00000119  00000+0  28612-3 0  9990
2 49282  87.9076 351.2645 0002004  92.1960 267.9399 13.14501792186949
ONEWEB-0356             
1 49283U 21090E   25223.83545474 -.00000024  00000+0 -91849-4 0  9994
2 49283  87.9294 336.0816 0002724 110.2859 249.8567 13.20771889188997
ONEWEB-0358             
1 49284U 21090F   25223.86544252 -.00000035  00000+0 -11746-3 0  9990
2 49284  87.9299 336.0664 0001913 104.2611 255.8735 13.20772625189727
ONEWEB-0359             
1 49285U 21090G   25223.86228500 -.00000033  00000+0 -11333-3 0  9996
2 49285  87.9289 336.0776 0001715 109.9760 250.1558 13.20771426189705
ONEWEB-0360             
1 49286U 21090H   25224.23159252  .00000074  00000+0  15033-3 0  9990
2 49286  87.9294 336.0128 0001797 102.9566 257.1769 13.20770638190358
ONEWEB-0361             
1 49287U 21090J   25224.28842322  .00000071  00000+0  14374-3 0  9997
2 49287  87.9295 335.9962 0002053 101.7658 258.3705 13.20772131190352
ONEWEB-0362             
1 49288U 21090K   25223.92053409 -.00000037  00000+0 -12575-3 0  9993
2 49288  87.9248   6.4694 0001645  92.7034 267.4287 13.19726068186128
